{
  "norad_id": 57517,
  "name": "COSMOS 2569 [GLONASS-K2]",
  "history": [
    {
      "epoch": "2026-03-28T12:59:13.416000Z",
      "apogee_km": 19162.666762733563,
      "perigee_km": 19096.819700388598,
      "latitude_deg": 3.223698375021713e-05,
      "longitude_deg": 54.55970974787976,
      "height_km": 19117.165524282584,
      "semi_major_axis_km": 25507.880231561077,
      "eccentricity": 0.00129072,
      "inclination_deg": 65.2574,
      "raan_deg": 75.3385,
      "arg_perigee_deg": 293.4527,
      "mean_anomaly_deg": 66.4203,
      "mean_motion_rev_day": 2.13103807
    },
    {
      "epoch": "2026-03-29T22:46:24.293856Z",
      "apogee_km": 19162.62790481545,
      "perigee_km": 19096.85329164066,
      "latitude_deg": -5.917381129851199e-05,
      "longitude_deg": -93.67273746208298,
      "height_km": 19117.13056421326,
      "semi_major_axis_km": 25507.877598228053,
      "eccentricity": 0.0012893,
      "inclination_deg": 65.2583,
      "raan_deg": 75.2911,
      "arg_perigee_deg": 293.5337,
      "mean_anomaly_deg": 66.3347,
      "mean_motion_rev_day": 2.1310384
    },
    {
      "epoch": "2026-03-29T22:46:24.305088Z",
      "apogee_km": 19162.629579713575,
      "perigee_km": 19096.852414722154,
      "latitude_deg": -5.24222184968383e-05,
      "longitude_deg": -93.67278128142343,
      "height_km": 19117.131556961904,
      "semi_major_axis_km": 25507.877997217864,
      "eccentricity": 0.00128935,
      "inclination_deg": 65.2583,
      "raan_deg": 75.2911,
      "arg_perigee_deg": 293.5316,
      "mean_anomaly_deg": 66.3368,
      "mean_motion_rev_day": 2.13103835
    },
    {
      "epoch": "2026-03-30T10:02:07.882656Z",
      "apogee_km": 19162.617892218706,
      "perigee_km": 19096.862665853718,
      "latitude_deg": -4.717141977007163e-05,
      "longitude_deg": 96.91650312147114,
      "height_km": 19117.119775453768,
      "semi_major_axis_km": 25507.877279036213,
      "eccentricity": 0.00128892,
      "inclination_deg": 65.2586,
      "raan_deg": 75.2752,
      "arg_perigee_deg": 293.5582,
      "mean_anomaly_deg": 66.3082,
      "mean_motion_rev_day": 2.13103844
    },
    {
      "epoch": "2026-03-30T10:02:07.892160Z",
      "apogee_km": 19162.601438128724,
      "perigee_km": 19096.87784317642,
      "latitude_deg": -4.512579774239097e-05,
      "longitude_deg": 96.91646435570564,
      "height_km": 19117.108862224435,
      "semi_major_axis_km": 25507.876640652572,
      "eccentricity": 0.0012883,
      "inclination_deg": 65.2586,
      "raan_deg": 75.2752,
      "arg_perigee_deg": 293.5899,
      "mean_anomaly_deg": 66.2766,
      "mean_motion_rev_day": 2.13103852
    },
    {
      "epoch": "2026-04-02T05:36:29.321280Z",
      "apogee_km": 19162.5321890692,
      "perigee_km": 19096.93767607971,
      "latitude_deg": 3.6390563730997554e-05,
      "longitude_deg": 160.45446081569287,
      "height_km": 19117.066512619233,
      "semi_major_axis_km": 25507.871932574453,
      "eccentricity": 0.00128577,
      "inclination_deg": 65.2603,
      "raan_deg": 75.1803,
      "arg_perigee_deg": 293.6993,
      "mean_anomaly_deg": 66.1549,
      "mean_motion_rev_day": 2.13103911
    },
    {
      "epoch": "2026-04-02T05:36:29.327328Z",
      "apogee_km": 19162.533018828726,
      "perigee_km": 19096.93748470353,
      "latitude_deg": -4.918700591340497e-05,
      "longitude_deg": 160.45439614182686,
      "height_km": 19117.068576220656,
      "semi_major_axis_km": 25507.872251766126,
      "eccentricity": 0.00128579,
      "inclination_deg": 65.2603,
      "raan_deg": 75.1803,
      "arg_perigee_deg": 293.6955,
      "mean_anomaly_deg": 66.1586,
      "mean_motion_rev_day": 2.13103907
    },
    {
      "epoch": "2026-04-03T04:07:56.608608Z",
      "apogee_km": 19162.511745989657,
      "perigee_km": 19096.953969668055,
      "latitude_deg": -7.560911667742987e-05,
      "longitude_deg": -178.36593135863484,
      "height_km": 19117.04737065954,
      "semi_major_axis_km": 25507.869857828857,
      "eccentricity": 0.00128505,
      "inclination_deg": 65.2609,
      "raan_deg": 75.1487,
      "arg_perigee_deg": 293.7451,
      "mean_anomaly_deg": 66.1063,
      "mean_motion_rev_day": 2.13103937
    },
    {
      "epoch": "2026-04-04T02:39:24.054912Z",
      "apogee_km": 19162.493601634287,
      "perigee_km": 19096.97051806549,
      "latitude_deg": 4.281093760460408e-05,
      "longitude_deg": -157.18644705019622,
      "height_km": 19117.03741526314,
      "semi_major_axis_km": 25507.869059849887,
      "eccentricity": 0.00128437,
      "inclination_deg": 65.2614,
      "raan_deg": 75.1171,
      "arg_perigee_deg": 293.7768,
      "mean_anomaly_deg": 66.0733,
      "mean_motion_rev_day": 2.13103947
    },
    {
      "epoch": "2026-04-05T01:10:51.680064Z",
      "apogee_km": 19162.474055853156,
      "perigee_km": 19096.989744655046,
      "latitude_deg": 2.245944733128274e-05,
      "longitude_deg": -136.00754482389337,
      "height_km": 19117.01401627183,
      "semi_major_axis_km": 25507.8689002541,
      "eccentricity": 0.00128361,
      "inclination_deg": 65.262,
      "raan_deg": 75.0854,
      "arg_perigee_deg": 293.8382,
      "mean_anomaly_deg": 66.0118,
      "mean_motion_rev_day": 2.13103949
    },
    {
      "epoch": "2026-04-05T23:42:19.414080Z",
      "apogee_km": 19162.44653811071,
      "perigee_km": 19097.01630482281,
      "latitude_deg": -1.7478282266909103e-05,
      "longitude_deg": -114.82881710206416,
      "height_km": 19116.995201093938,
      "semi_major_axis_km": 25507.86842146676,
      "eccentricity": 0.00128255,
      "inclination_deg": 65.2626,
      "raan_deg": 75.0538,
      "arg_perigee_deg": 293.897,
      "mean_anomaly_deg": 65.9541,
      "mean_motion_rev_day": 2.13103955
    },
    {
      "epoch": "2026-04-08T08:00:59.145696Z",
      "apogee_km": 19162.33782845423,
      "perigee_km": 19097.126450841337,
      "latitude_deg": -5.582109956609231e-05,
      "longitude_deg": 118.11619971405075,
      "height_km": 19116.949997498035,
      "semi_major_axis_km": 25507.86913964778,
      "eccentricity": 0.00127826,
      "inclination_deg": 65.264,
      "raan_deg": 74.9748,
      "arg_perigee_deg": 294.0774,
      "mean_anomaly_deg": 65.78,
      "mean_motion_rev_day": 2.13103946
    },
    {
      "epoch": "2026-04-09T06:32:27.042144Z",
      "apogee_km": 19162.304382387025,
      "perigee_km": 19097.160854483292,
      "latitude_deg": 2.3061059353635052e-05,
      "longitude_deg": 139.2937035787914,
      "height_km": 19116.93856595597,
      "semi_major_axis_km": 25507.869618435157,
      "eccentricity": 0.00127693,
      "inclination_deg": 65.2646,
      "raan_deg": 74.9431,
      "arg_perigee_deg": 294.1283,
      "mean_anomaly_deg": 65.7319,
      "mean_motion_rev_day": 2.1310394
    },
    {
      "epoch": "2026-04-09T17:48:11.005056Z",
      "apogee_km": 19162.27699668913,
      "perigee_km": 19097.191112905708,
      "latitude_deg": 3.305097375527576e-05,
      "longitude_deg": -30.117712730233695,
      "height_km": 19116.958900193393,
      "semi_major_axis_km": 25507.87105479742,
      "eccentricity": 0.0012758,
      "inclination_deg": 65.2649,
      "raan_deg": 74.9273,
      "arg_perigee_deg": 294.1147,
      "mean_anomaly_deg": 65.7467,
      "mean_motion_rev_day": 2.13103922
    }
  ]
}